[{"OBJECT_NAME":"STARLETTE","OBJECT_ID":"1975-010A","EPOCH":"2026-04-04T04:59:32.018208","MEAN_MOTION":13.82349302,"ECCENTRICITY":0.02056441,"INCLINATION":49.8253,"RA_OF_ASC_NODE":36.5992,"ARG_OF_PERICENTER":178.6435,"MEAN_ANOMALY":181.5056,"EPHEMERIS_TYPE":0,"CLASSIFICATION_TYPE":"U","NORAD_CAT_ID":7646,"ELEMENT_SET_NO":999,"REV_AT_EPOCH":58430,"BSTAR":-1.0135284e-5,"MEAN_MOTION_DOT":-1.55e-6,"MEAN_MOTION_DDOT":0},{"OBJECT_NAME":"LAGEOS 1","OBJECT_ID":"1976-039A","EPOCH":"2026-04-03T09:24:41.725440","MEAN_MOTION":6.38664831,"ECCENTRICITY":0.00446735,"INCLINATION":109.8111,"RA_OF_ASC_NODE":153.7402,"ARG_OF_PERICENTER":318.2866,"MEAN_ANOMALY":67.836,"EPHEMERIS_TYPE":0,"CLASSIFICATION_TYPE":"U","NORAD_CAT_ID":8820,"ELEMENT_SET_NO":999,"REV_AT_EPOCH":90836,"BSTAR":0,"MEAN_MOTION_DOT":2.0e-8,"MEAN_MOTION_DDOT":0},{"OBJECT_NAME":"AJISAI (EGS)","OBJECT_ID":"1986-061A","EPOCH":"2026-04-04T06:40:37.969536","MEAN_MOTION":12.44515625,"ECCENTRICITY":0.00113593,"INCLINATION":50.0121,"RA_OF_ASC_NODE":14.6631,"ARG_OF_PERICENTER":352.9052,"MEAN_ANOMALY":189.0277,"EPHEMERIS_TYPE":0,"CLASSIFICATION_TYPE":"U","NORAD_CAT_ID":16908,"ELEMENT_SET_NO":999,"REV_AT_EPOCH":47118,"BSTAR":5.591225e-6,"MEAN_MOTION_DOT":-9.7e-7,"MEAN_MOTION_DDOT":0},{"OBJECT_NAME":"COSMOS 1989 (ETALON 1)","OBJECT_ID":"1989-001C","EPOCH":"2026-04-04T05:25:46.951104","MEAN_MOTION":2.13156089,"ECCENTRICITY":0.00234015,"INCLINATION":64.9042,"RA_OF_ASC_NODE":74.7233,"ARG_OF_PERICENTER":217.6455,"MEAN_ANOMALY":232.7159,"EPHEMERIS_TYPE":0,"CLASSIFICATION_TYPE":"U","NORAD_CAT_ID":19751,"ELEMENT_SET_NO":999,"REV_AT_EPOCH":28979,"BSTAR":0,"MEAN_MOTION_DOT":-5.0e-8,"MEAN_MOTION_DDOT":0},{"OBJECT_NAME":"COSMOS 2024 (ETALON 2)","OBJECT_ID":"1989-039C","EPOCH":"2026-04-04T03:42:39.143808","MEAN_MOTION":2.13204676,"ECCENTRICITY":0.0020492,"INCLINATION":64.9792,"RA_OF_ASC_NODE":313.0871,"ARG_OF_PERICENTER":213.1211,"MEAN_ANOMALY":327.048,"EPHEMERIS_TYPE":0,"CLASSIFICATION_TYPE":"U","NORAD_CAT_ID":20026,"ELEMENT_SET_NO":999,"REV_AT_EPOCH":28692,"BSTAR":0,"MEAN_MOTION_DOT":-4.2e-7,"MEAN_MOTION_DDOT":0},{"OBJECT_NAME":"LAGEOS 2","OBJECT_ID":"1992-070B","EPOCH":"2026-03-20T02:10:27.910848","MEAN_MOTION":6.47293426,"ECCENTRICITY":0.0137714,"INCLINATION":52.6746,"RA_OF_ASC_NODE":322.9737,"ARG_OF_PERICENTER":148.3601,"MEAN_ANOMALY":4.1736,"EPHEMERIS_TYPE":0,"CLASSIFICATION_TYPE":"U","NORAD_CAT_ID":22195,"ELEMENT_SET_NO":999,"REV_AT_EPOCH":78965,"BSTAR":0,"MEAN_MOTION_DOT":-9.0e-8,"MEAN_MOTION_DDOT":0},{"OBJECT_NAME":"STELLA","OBJECT_ID":"1993-061B","EPOCH":"2026-04-04T05:57:31.717728","MEAN_MOTION":14.27468449,"ECCENTRICITY":0.00074971,"INCLINATION":98.7789,"RA_OF_ASC_NODE":158.2124,"ARG_OF_PERICENTER":92.2334,"MEAN_ANOMALY":355.8676,"EPHEMERIS_TYPE":0,"CLASSIFICATION_TYPE":"U","NORAD_CAT_ID":22824,"ELEMENT_SET_NO":999,"REV_AT_EPOCH":69422,"BSTAR":1.3521759e-5,"MEAN_MOTION_DOT":-1.2e-7,"MEAN_MOTION_DDOT":0},{"OBJECT_NAME":"LARETS","OBJECT_ID":"2003-042F","EPOCH":"2026-04-04T05:25:23.705184","MEAN_MOTION":14.63855529,"ECCENTRICITY":0.0011028,"INCLINATION":98.4064,"RA_OF_ASC_NODE":254.9113,"ARG_OF_PERICENTER":266.7442,"MEAN_ANOMALY":93.2498,"EPHEMERIS_TYPE":0,"CLASSIFICATION_TYPE":"U","NORAD_CAT_ID":27944,"ELEMENT_SET_NO":999,"REV_AT_EPOCH":20254,"BSTAR":3.2434074e-5,"MEAN_MOTION_DOT":1.19e-6,"MEAN_MOTION_DDOT":0},{"OBJECT_NAME":"LARES","OBJECT_ID":"2012-006A","EPOCH":"2026-04-04T05:57:19.021248","MEAN_MOTION":12.54932167,"ECCENTRICITY":0.00065908,"INCLINATION":69.4911,"RA_OF_ASC_NODE":58.5376,"ARG_OF_PERICENTER":119.9556,"MEAN_ANOMALY":240.2126,"EPHEMERIS_TYPE":0,"CLASSIFICATION_TYPE":"U","NORAD_CAT_ID":38077,"ELEMENT_SET_NO":999,"REV_AT_EPOCH":64779,"BSTAR":-0.00010651844,"MEAN_MOTION_DOT":-5.6e-7,"MEAN_MOTION_DDOT":0},{"OBJECT_NAME":"LARES-2","OBJECT_ID":"2022-080A","EPOCH":"2026-03-31T05:21:37.648224","MEAN_MOTION":6.38965054,"ECCENTRICITY":0.00059524,"INCLINATION":70.1721,"RA_OF_ASC_NODE":332.0673,"ARG_OF_PERICENTER":3.9036,"MEAN_ANOMALY":356.1767,"EPHEMERIS_TYPE":0,"CLASSIFICATION_TYPE":"U","NORAD_CAT_ID":53105,"ELEMENT_SET_NO":999,"REV_AT_EPOCH":8668,"BSTAR":0,"MEAN_MOTION_DOT":-1.9e-7,"MEAN_MOTION_DDOT":0}]
