STARLETTE               
1 07646U 75010A   26094.20800947 -.00000155  00000+0 -10135-4 0  9993
2 07646  49.8253  36.5992 0205644 178.6435 181.5056 13.82349302584306
LAGEOS 1                
1 08820U 76039A   26093.39214960  .00000002  00000+0  00000+0 0  9997
2 08820 109.8111 153.7402 0044673 318.2866  67.8360  6.38664831908362
AJISAI (EGS)            
1 16908U 86061A   26094.27821724 -.00000097  00000+0  55912-5 0  9992
2 16908  50.0121  14.6631 0011359 352.9052 189.0277 12.44515625471181
COSMOS 1989 (ETALON 1)  
1 19751U 89001C   26094.22623786 -.00000005  00000+0  00000+0 0  9992
2 19751  64.9042  74.7233 0023401 217.6455 232.7159  2.13156089289795
COSMOS 2024 (ETALON 2)  
1 20026U 89039C   26094.15461972 -.00000042  00000+0  00000+0 0  9990
2 20026  64.9792 313.0871 0020492 213.1211 327.0480  2.13204676286922
LAGEOS 2                
1 22195U 92070B   26079.09060082 -.00000009  00000+0  00000+0 0  9994
2 22195  52.6746 322.9737 0137714 148.3601   4.1736  6.47293426789659
STELLA                  
1 22824U 93061B   26094.24828377 -.00000012  00000+0  13522-4 0  9999
2 22824  98.7789 158.2124 0007497  92.2334 355.8676 14.27468449694223
LARETS                  
1 27944U 03042F   26094.22596881  .00000119  00000+0  32434-4 0  9997
2 27944  98.4064 254.9113 0011028 266.7442  93.2498 14.63855529202543
LARES                   
1 38077U 12006A   26094.24813682 -.00000056  00000+0 -10652-3 0  9998
2 38077  69.4911  58.5376 0006590 119.9556 240.2126 12.54932167647797
LARES-2                 
1 53105U 22080A   26090.22335241 -.00000019  00000+0  00000+0 0  9994
2 53105  70.1721 332.0673 0005952   3.9036 356.1767  6.38965054 86689
